[{"OBJECT_NAME":"SDA_1671","OBJECT_ID":"2025-230H","EPOCH":"2026-03-09T17:44:20.295456","MEAN_MOTION":13.85388686,"ECCENTRICITY":0.00046746,"INCLINATION":81.3008,"RA_OF_ASC_NODE":303.8297,"ARG_OF_PERICENTER":111.686,"MEAN_ANOMALY":248.4795,"EPHEMERIS_TYPE":0,"CLASSIFICATION_TYPE":"U","NORAD_CAT_ID":65981,"ELEMENT_SET_NO":999,"REV_AT_EPOCH":2005,"BSTAR":0.00023629654,"MEAN_MOTION_DOT":2.81e-6,"MEAN_MOTION_DDOT":0},{"OBJECT_NAME":"CZ-6A DEB","OBJECT_ID":"2024-140GM","EPOCH":"2026-03-09T03:19:21.182304","MEAN_MOTION":14.0466225,"ECCENTRICITY":0.01161498,"INCLINATION":89.3806,"RA_OF_ASC_NODE":312.6568,"ARG_OF_PERICENTER":204.1178,"MEAN_ANOMALY":155.454,"EPHEMERIS_TYPE":0,"CLASSIFICATION_TYPE":"U","NORAD_CAT_ID":60810,"ELEMENT_SET_NO":999,"REV_AT_EPOCH":8060,"BSTAR":0.00032404635,"MEAN_MOTION_DOT":5.63e-6,"MEAN_MOTION_DDOT":0}]
